CCSDS_OMM_VERS = 2.0
CREATION_DATE  = 
ORIGINATOR     = 

OBJECT_NAME    = XINZHENGCHENG-01
OBJECT_ID      = 2026-066A
CENTER_NAME    = EARTH
REF_FRAME      = TEME
TIME_SYSTEM    = UTC
MEAN_ELEMENT_THEORY = SGP/SGP4

EPOCH          = 2026-04-02T19:06:08.580960
MEAN_MOTION    = 14.88436835
ECCENTRICITY   = .0026927
INCLINATION    = 84.9614
RA_OF_ASC_NODE = 275.7169
ARG_OF_PERICENTER = 151.8303
MEAN_ANOMALY   = 208.4384

EPHEMERIS_TYPE = 0
CLASSIFICATION_TYPE = U
NORAD_CAT_ID   = 68412
ELEMENT_SET_NO = 999
REV_AT_EPOCH   = 51
BSTAR          = .11258E-3
MEAN_MOTION_DOT = .1081E-4
MEAN_MOTION_DDOT = 0

CCSDS_OMM_VERS = 2.0
CREATION_DATE  = 
ORIGINATOR     = 

OBJECT_NAME    = LIJIAN-2 R/B
OBJECT_ID      = 2026-066B
CENTER_NAME    = EARTH
REF_FRAME      = TEME
TIME_SYSTEM    = UTC
MEAN_ELEMENT_THEORY = SGP/SGP4

EPOCH          = 2026-03-31T18:24:33.055200
MEAN_MOTION    = 15.04815352
ECCENTRICITY   = .06052317
INCLINATION    = 84.7161
RA_OF_ASC_NODE = 277.0200
ARG_OF_PERICENTER = 206.6432
MEAN_ANOMALY   = 150.2503

EPHEMERIS_TYPE = 0
CLASSIFICATION_TYPE = U
NORAD_CAT_ID   = 68413
ELEMENT_SET_NO = 999
REV_AT_EPOCH   = 20
BSTAR          = .21174642E-3
MEAN_MOTION_DOT = .2524605E-1
MEAN_MOTION_DDOT = -.1158743E-5

CCSDS_OMM_VERS = 2.0
CREATION_DATE  = 
ORIGINATOR     = 

OBJECT_NAME    = SL-4 R/B
OBJECT_ID      = 2026-061S
CENTER_NAME    = EARTH
REF_FRAME      = TEME
TIME_SYSTEM    = UTC
MEAN_ELEMENT_THEORY = SGP/SGP4

EPOCH          = 2026-04-02T17:28:12.205920
MEAN_MOTION    = 15.91364575
ECCENTRICITY   = .0025737
INCLINATION    = 82.3048
RA_OF_ASC_NODE = 97.3586
ARG_OF_PERICENTER = 33.2303
MEAN_ANOMALY   = 327.0579

EPHEMERIS_TYPE = 0
CLASSIFICATION_TYPE = U
NORAD_CAT_ID   = 68537
ELEMENT_SET_NO = 999
REV_AT_EPOCH   = 159
BSTAR          = .79138E-3
MEAN_MOTION_DOT = .260162E-2
MEAN_MOTION_DDOT = .23623E-4

