XINZHENGCHENG-01        
1 68412U 26066A   26092.79593265  .00001081  00000+0  11258-3 0  9995
2 68412  84.9614 275.7169 0026927 151.8303 208.4384 14.88436835   514
LIJIAN-2 R/B            
1 68413U 26066B   26090.76704925  .02524605 -11587-5  21175-3 0  9990
2 68413  84.7161 277.0200 0605231 206.6432 150.2503 15.04815352   201
SL-4 R/B                
1 68537U 26061S   26092.72791905  .00260162  23623-4  79138-3 0  9991
2 68537  82.3048  97.3586 0025737  33.2303 327.0579 15.91364575  1596
